STARLINK-36844          
1 68117U 26044S   26096.25002315 -.01841135  00000+0 -45428-1 0  9998
2 68117  97.2850  57.5872 0002020  84.7556  66.5444 15.43655837  5785
STARLINK-36789          
1 68118U 26044T   26096.25002315 -.01843054  00000+0 -45978-1 0  9991
2 68118  97.2857  57.5951 0001731  83.3091  86.9432 15.43337001  5781
STARLINK-36850          
1 68119U 26044U   26096.25002315 -.01837882  00000+0 -44388-1 0  9998
2 68119  97.2854  57.5982 0002080  82.0334  94.8175 15.44278726  5788
STARLINK-36868          
1 68120U 26044V   26096.25002315 -.01839180  00000+0 -45009-1 0  9994
2 68120  97.2854  57.6060 0001840  82.2546 113.0980 15.43895453  5787
STARLINK-36855          
1 68121U 26044W   26096.25002315 -.01888171  00000+0 -41982-1 0  9995
2 68121  97.2846  57.5931 0002232  95.9336  80.6337 15.46770718  5783
STARLINK-36366          
1 68122U 26044X   26096.25002315 -.01884376  00000+0 -40729-1 0  9997
2 68122  97.2846  57.5965 0002087  97.2403  89.5047 15.47579866  5833
STARLINK-36922          
1 68123U 26044Y   26096.25002315 -.01911022  00000+0 -40828-1 0  9997
2 68123  97.2853  57.6080 0002067  94.4950 117.9033 15.47956515  5836
STARLINK-36938          
1 68124U 26044Z   26095.60920167  .00254377  00000+0  16463-2 0  9999
2 68124  97.2841  57.1684 0002657  77.2423 282.9139 15.75325059  5720
STARLINK-36839          
1 68125U 26044AA  26096.25002315 -.01869722  00000+0 -40931-1 0  9993
2 68125  97.2848  57.6056 0002212  99.2310 107.0811 15.47187338  5787
ECHOSTAR 25             
1 68126U 26045A   26096.18933479  .00000060  00000+0  00000+0 0  9991
2 68126   0.0314 282.9035 0001854 154.1906  56.6866  1.00271516   275
ICOR SV                 
1 68127U 26046A   26095.58423866  .00566370  12338-4  60397-3 0  9992
2 68127 123.0715 329.2342 0083893 239.5685 119.7085 16.02418156  3883
GUOWANG GROUP 20 OBJECT*
1 68129U 26047A   26095.90842571 -.00000099  00000+0  41743-4 0  9994
2 68129  50.0058 320.7505 0001456 143.9255 216.1738 13.80029300  3370
GUOWANG GROUP 20 OBJECT*
1 68130U 26047B   26095.61501207 -.00000064  00000+0  74072-4 0  9995
2 68130  50.0035 321.8683 0000602 277.2278  82.8548 13.81038294  3329
GUOWANG GROUP 20 OBJECT*
1 68131U 26047C   26095.61181955 -.00000095  00000+0  44686-4 0  9992
2 68131  49.9927 321.8947 0003062 305.5324  54.5285 13.81638668  3336
GUOWANG GROUP 20 OBJECT*
1 68132U 26047D   26095.82565236 -.00000087  00000+0  52378-4 0  9992
2 68132  50.0080 320.9711 0000467 277.3673  82.7169 13.80675205  3351
