[{"OBJECT_NAME":"STARLINK-36844","OBJECT_ID":"2026-044S","EPOCH":"2026-04-06T06:00:02.000160","MEAN_MOTION":15.43655837,"ECCENTRICITY":0.00020207,"INCLINATION":97.285,"RA_OF_ASC_NODE":57.5872,"ARG_OF_PERICENTER":84.7556,"MEAN_ANOMALY":66.5444,"EPHEMERIS_TYPE":0,"CLASSIFICATION_TYPE":"U","NORAD_CAT_ID":68117,"ELEMENT_SET_NO":999,"REV_AT_EPOCH":578,"BSTAR":-0.04542761,"MEAN_MOTION_DOT":-0.01841135,"MEAN_MOTION_DDOT":0},{"OBJECT_NAME":"STARLINK-36789","OBJECT_ID":"2026-044T","EPOCH":"2026-04-06T06:00:02.000160","MEAN_MOTION":15.43337001,"ECCENTRICITY":0.00017315,"INCLINATION":97.2857,"RA_OF_ASC_NODE":57.5951,"ARG_OF_PERICENTER":83.3091,"MEAN_ANOMALY":86.9432,"EPHEMERIS_TYPE":0,"CLASSIFICATION_TYPE":"U","NORAD_CAT_ID":68118,"ELEMENT_SET_NO":999,"REV_AT_EPOCH":578,"BSTAR":-0.045977867,"MEAN_MOTION_DOT":-0.01843054,"MEAN_MOTION_DDOT":0},{"OBJECT_NAME":"STARLINK-36850","OBJECT_ID":"2026-044U","EPOCH":"2026-04-06T06:00:02.000160","MEAN_MOTION":15.44278726,"ECCENTRICITY":0.00020806,"INCLINATION":97.2854,"RA_OF_ASC_NODE":57.5982,"ARG_OF_PERICENTER":82.0334,"MEAN_ANOMALY":94.8175,"EPHEMERIS_TYPE":0,"CLASSIFICATION_TYPE":"U","NORAD_CAT_ID":68119,"ELEMENT_SET_NO":999,"REV_AT_EPOCH":578,"BSTAR":-0.044388316,"MEAN_MOTION_DOT":-0.01837882,"MEAN_MOTION_DDOT":0},{"OBJECT_NAME":"STARLINK-36868","OBJECT_ID":"2026-044V","EPOCH":"2026-04-06T06:00:02.000160","MEAN_MOTION":15.43895453,"ECCENTRICITY":0.00018404,"INCLINATION":97.2854,"RA_OF_ASC_NODE":57.606,"ARG_OF_PERICENTER":82.2546,"MEAN_ANOMALY":113.098,"EPHEMERIS_TYPE":0,"CLASSIFICATION_TYPE":"U","NORAD_CAT_ID":68120,"ELEMENT_SET_NO":999,"REV_AT_EPOCH":578,"BSTAR":-0.045009151,"MEAN_MOTION_DOT":-0.0183918,"MEAN_MOTION_DDOT":0},{"OBJECT_NAME":"STARLINK-36855","OBJECT_ID":"2026-044W","EPOCH":"2026-04-06T06:00:02.000160","MEAN_MOTION":15.46770718,"ECCENTRICITY":0.00022325,"INCLINATION":97.2846,"RA_OF_ASC_NODE":57.5931,"ARG_OF_PERICENTER":95.9336,"MEAN_ANOMALY":80.6337,"EPHEMERIS_TYPE":0,"CLASSIFICATION_TYPE":"U","NORAD_CAT_ID":68121,"ELEMENT_SET_NO":999,"REV_AT_EPOCH":578,"BSTAR":-0.041982116,"MEAN_MOTION_DOT":-0.01888171,"MEAN_MOTION_DDOT":0},{"OBJECT_NAME":"STARLINK-36366","OBJECT_ID":"2026-044X","EPOCH":"2026-04-06T06:00:02.000160","MEAN_MOTION":15.47579866,"ECCENTRICITY":0.00020876,"INCLINATION":97.2846,"RA_OF_ASC_NODE":57.5965,"ARG_OF_PERICENTER":97.2403,"MEAN_ANOMALY":89.5047,"EPHEMERIS_TYPE":0,"CLASSIFICATION_TYPE":"U","NORAD_CAT_ID":68122,"ELEMENT_SET_NO":999,"REV_AT_EPOCH":583,"BSTAR":-0.040728609,"MEAN_MOTION_DOT":-0.01884376,"MEAN_MOTION_DDOT":0},{"OBJECT_NAME":"STARLINK-36922","OBJECT_ID":"2026-044Y","EPOCH":"2026-04-06T06:00:02.000160","MEAN_MOTION":15.47956515,"ECCENTRICITY":0.00020676,"INCLINATION":97.2853,"RA_OF_ASC_NODE":57.608,"ARG_OF_PERICENTER":94.495,"MEAN_ANOMALY":117.9033,"EPHEMERIS_TYPE":0,"CLASSIFICATION_TYPE":"U","NORAD_CAT_ID":68123,"ELEMENT_SET_NO":999,"REV_AT_EPOCH":583,"BSTAR":-0.040828477,"MEAN_MOTION_DOT":-0.01911022,"MEAN_MOTION_DDOT":0},{"OBJECT_NAME":"STARLINK-36938","OBJECT_ID":"2026-044Z","EPOCH":"2026-04-05T14:37:15.024288","MEAN_MOTION":15.75325059,"ECCENTRICITY":0.0002657,"INCLINATION":97.2841,"RA_OF_ASC_NODE":57.1684,"ARG_OF_PERICENTER":77.2423,"MEAN_ANOMALY":282.9139,"EPHEMERIS_TYPE":0,"CLASSIFICATION_TYPE":"U","NORAD_CAT_ID":68124,"ELEMENT_SET_NO":999,"REV_AT_EPOCH":572,"BSTAR":0.0016463,"MEAN_MOTION_DOT":0.00254377,"MEAN_MOTION_DDOT":0},{"OBJECT_NAME":"STARLINK-36839","OBJECT_ID":"2026-044AA","EPOCH":"2026-04-06T06:00:02.000160","MEAN_MOTION":15.47187338,"ECCENTRICITY":0.00022121,"INCLINATION":97.2848,"RA_OF_ASC_NODE":57.6056,"ARG_OF_PERICENTER":99.231,"MEAN_ANOMALY":107.0811,"EPHEMERIS_TYPE":0,"CLASSIFICATION_TYPE":"U","NORAD_CAT_ID":68125,"ELEMENT_SET_NO":999,"REV_AT_EPOCH":578,"BSTAR":-0.040931333,"MEAN_MOTION_DOT":-0.01869722,"MEAN_MOTION_DDOT":0},{"OBJECT_NAME":"ECHOSTAR 25","OBJECT_ID":"2026-045A","EPOCH":"2026-04-06T04:32:38.525856","MEAN_MOTION":1.00271516,"ECCENTRICITY":0.00018549,"INCLINATION":0.0314,"RA_OF_ASC_NODE":282.9035,"ARG_OF_PERICENTER":154.1906,"MEAN_ANOMALY":56.6866,"EPHEMERIS_TYPE":0,"CLASSIFICATION_TYPE":"U","NORAD_CAT_ID":68126,"ELEMENT_SET_NO":999,"REV_AT_EPOCH":27,"BSTAR":0,"MEAN_MOTION_DOT":6.0e-7,"MEAN_MOTION_DDOT":0},{"OBJECT_NAME":"ICOR SV","OBJECT_ID":"2026-046A","EPOCH":"2026-04-05T14:01:18.220224","MEAN_MOTION":16.02418156,"ECCENTRICITY":0.0083893,"INCLINATION":123.0715,"RA_OF_ASC_NODE":329.2342,"ARG_OF_PERICENTER":239.5685,"MEAN_ANOMALY":119.7085,"EPHEMERIS_TYPE":0,"CLASSIFICATION_TYPE":"U","NORAD_CAT_ID":68127,"ELEMENT_SET_NO":999,"REV_AT_EPOCH":388,"BSTAR":0.00060397,"MEAN_MOTION_DOT":0.0056637,"MEAN_MOTION_DDOT":1.2338e-5},{"OBJECT_NAME":"GUOWANG GROUP 20 OBJECT A","OBJECT_ID":"2026-047A","EPOCH":"2026-04-05T21:48:07.981344","MEAN_MOTION":13.800293,"ECCENTRICITY":0.00014562,"INCLINATION":50.0058,"RA_OF_ASC_NODE":320.7505,"ARG_OF_PERICENTER":143.9255,"MEAN_ANOMALY":216.1738,"EPHEMERIS_TYPE":0,"CLASSIFICATION_TYPE":"U","NORAD_CAT_ID":68129,"ELEMENT_SET_NO":999,"REV_AT_EPOCH":337,"BSTAR":4.1743058e-5,"MEAN_MOTION_DOT":-9.9e-7,"MEAN_MOTION_DDOT":0},{"OBJECT_NAME":"GUOWANG GROUP 20 OBJECT B","OBJECT_ID":"2026-047B","EPOCH":"2026-04-05T14:45:37.042848","MEAN_MOTION":13.81038294,"ECCENTRICITY":6.027e-5,"INCLINATION":50.0035,"RA_OF_ASC_NODE":321.8683,"ARG_OF_PERICENTER":277.2278,"MEAN_ANOMALY":82.8548,"EPHEMERIS_TYPE":0,"CLASSIFICATION_TYPE":"U","NORAD_CAT_ID":68130,"ELEMENT_SET_NO":999,"REV_AT_EPOCH":332,"BSTAR":7.4071798e-5,"MEAN_MOTION_DOT":-6.4e-7,"MEAN_MOTION_DDOT":0},{"OBJECT_NAME":"GUOWANG GROUP 20 OBJECT C","OBJECT_ID":"2026-047C","EPOCH":"2026-04-05T14:41:01.209120","MEAN_MOTION":13.81638668,"ECCENTRICITY":0.0003062,"INCLINATION":49.9927,"RA_OF_ASC_NODE":321.8947,"ARG_OF_PERICENTER":305.5324,"MEAN_ANOMALY":54.5285,"EPHEMERIS_TYPE":0,"CLASSIFICATION_TYPE":"U","NORAD_CAT_ID":68131,"ELEMENT_SET_NO":999,"REV_AT_EPOCH":333,"BSTAR":4.4686e-5,"MEAN_MOTION_DOT":-9.5e-7,"MEAN_MOTION_DDOT":0},{"OBJECT_NAME":"GUOWANG GROUP 20 OBJECT D","OBJECT_ID":"2026-047D","EPOCH":"2026-04-05T19:48:56.363904","MEAN_MOTION":13.80675205,"ECCENTRICITY":4.67e-5,"INCLINATION":50.008,"RA_OF_ASC_NODE":320.9711,"ARG_OF_PERICENTER":277.3673,"MEAN_ANOMALY":82.7169,"EPHEMERIS_TYPE":0,"CLASSIFICATION_TYPE":"U","NORAD_CAT_ID":68132,"ELEMENT_SET_NO":999,"REV_AT_EPOCH":335,"BSTAR":5.2378e-5,"MEAN_MOTION_DOT":-8.7e-7,"MEAN_MOTION_DDOT":0}]
